[{"OBJECT_NAME":"STARLINK-34766","OBJECT_ID":"2025-263W","EPOCH":"2026-03-09T04:02:26.075904","MEAN_MOTION":15.27571596,"ECCENTRICITY":0.00013711,"INCLINATION":43.0014,"RA_OF_ASC_NODE":353.2552,"ARG_OF_PERICENTER":268.5653,"MEAN_ANOMALY":91.5042,"EPHEMERIS_TYPE":0,"CLASSIFICATION_TYPE":"U","NORAD_CAT_ID":66505,"ELEMENT_SET_NO":999,"REV_AT_EPOCH":1882,"BSTAR":0.0012252695,"MEAN_MOTION_DOT":0.000336,"MEAN_MOTION_DDOT":0},{"OBJECT_NAME":"CZ-6A DEB","OBJECT_ID":"2024-140NC","EPOCH":"2026-03-09T01:19:44.598720","MEAN_MOTION":14.85954551,"ECCENTRICITY":0.01874643,"INCLINATION":89.0262,"RA_OF_ASC_NODE":281.6645,"ARG_OF_PERICENTER":160.2054,"MEAN_ANOMALY":200.6578,"EPHEMERIS_TYPE":0,"CLASSIFICATION_TYPE":"U","NORAD_CAT_ID":61086,"ELEMENT_SET_NO":999,"REV_AT_EPOCH":8276,"BSTAR":0.00091551765,"MEAN_MOTION_DOT":0.00011041,"MEAN_MOTION_DDOT":0}]
